TDRS 11                 
1 39070U 13004A   26032.88401644  .00000070  00000+0  00000+0 0  9990
2 39070   3.3239  28.7623 0002849 329.5844 277.6964  1.00265721 45337
TDRS 12                 
1 39504U 14004A   26032.91036324 -.00000280  00000+0  00000+0 0  9990
2 39504   3.8477  16.6865 0005550 265.9920 135.9801  1.00263958 42920
GPM-CORE                
1 39574U 14009C   26032.96328416  .00007757  00000+0  17071-3 0  9998
2 39574  64.9736  41.0811 0010168 249.0210 110.9843 15.44629230676926
MMS 1                   
1 40482U 15011A   26033.00002315 -.00002107  00000+0  00000+0 0  9990
2 40482  70.3087 350.6479 8449918 164.5870 189.5928  0.28335480  1379
MMS 2                   
1 40483U 15011B   26033.00002315 -.00002107  00000+0  00000+0 0  9991
2 40483  70.3052 350.6390 8451492 164.6032 189.5578  0.28335472  1377
MMS 3                   
1 40484U 15011C   26033.00002315 -.00002107  00000+0  00000+0 0  9992
2 40484  70.3129 350.6548 8451467 164.5996 189.5511  0.28335978  1376
MMS 4                   
1 40485U 15011D   26033.00002315 -.00002108  00000+0  00000+0 0  9994
2 40485  70.3119 350.6467 8452646 164.5853 189.5889  0.28335451  1372
TDRS 13                 
1 42915U 17047A   26032.91608326 -.00000105  00000+0  00000+0 0  9993
2 42915   3.4255 359.2873 0008824 107.1546 343.9716  1.00271439 30996
NOAA 20 (JPSS-1)        
1 43013U 17073A   26032.88082598  .00000080  00000+0  58736-4 0  9990
2 43013  98.7654 333.6329 0000614  16.8843 343.2353 14.19525980425279
