[{"OBJECT_NAME":"TDRS 11","OBJECT_ID":"2013-004A","EPOCH":"2026-02-01T21:12:59.020416","MEAN_MOTION":1.00265721,"ECCENTRICITY":0.00028492,"INCLINATION":3.3239,"RA_OF_ASC_NODE":28.7623,"ARG_OF_PERICENTER":329.5844,"MEAN_ANOMALY":277.6964,"EPHEMERIS_TYPE":0,"CLASSIFICATION_TYPE":"U","NORAD_CAT_ID":39070,"ELEMENT_SET_NO":999,"REV_AT_EPOCH":4533,"BSTAR":0,"MEAN_MOTION_DOT":7.0e-7,"MEAN_MOTION_DDOT":0},{"OBJECT_NAME":"TDRS 12","OBJECT_ID":"2014-004A","EPOCH":"2026-02-01T21:50:55.383936","MEAN_MOTION":1.00263958,"ECCENTRICITY":0.00055509,"INCLINATION":3.8477,"RA_OF_ASC_NODE":16.6865,"ARG_OF_PERICENTER":265.992,"MEAN_ANOMALY":135.9801,"EPHEMERIS_TYPE":0,"CLASSIFICATION_TYPE":"U","NORAD_CAT_ID":39504,"ELEMENT_SET_NO":999,"REV_AT_EPOCH":4292,"BSTAR":0,"MEAN_MOTION_DOT":-2.8e-6,"MEAN_MOTION_DDOT":0},{"OBJECT_NAME":"GPM-CORE","OBJECT_ID":"2014-009C","EPOCH":"2026-02-01T23:07:07.751424","MEAN_MOTION":15.4462923,"ECCENTRICITY":0.00101689,"INCLINATION":64.9736,"RA_OF_ASC_NODE":41.0811,"ARG_OF_PERICENTER":249.021,"MEAN_ANOMALY":110.9843,"EPHEMERIS_TYPE":0,"CLASSIFICATION_TYPE":"U","NORAD_CAT_ID":39574,"ELEMENT_SET_NO":999,"REV_AT_EPOCH":67692,"BSTAR":0.000170713,"MEAN_MOTION_DOT":7.757e-5,"MEAN_MOTION_DDOT":0},{"OBJECT_NAME":"MMS 1","OBJECT_ID":"2015-011A","EPOCH":"2026-02-02T00:00:02.000160","MEAN_MOTION":0.2833548,"ECCENTRICITY":0.84499189,"INCLINATION":70.3087,"RA_OF_ASC_NODE":350.6479,"ARG_OF_PERICENTER":164.587,"MEAN_ANOMALY":189.5928,"EPHEMERIS_TYPE":0,"CLASSIFICATION_TYPE":"U","NORAD_CAT_ID":40482,"ELEMENT_SET_NO":999,"REV_AT_EPOCH":137,"BSTAR":0,"MEAN_MOTION_DOT":-2.107e-5,"MEAN_MOTION_DDOT":0},{"OBJECT_NAME":"MMS 2","OBJECT_ID":"2015-011B","EPOCH":"2026-02-02T00:00:02.000160","MEAN_MOTION":0.28335472,"ECCENTRICITY":0.84514929,"INCLINATION":70.3052,"RA_OF_ASC_NODE":350.639,"ARG_OF_PERICENTER":164.6032,"MEAN_ANOMALY":189.5578,"EPHEMERIS_TYPE":0,"CLASSIFICATION_TYPE":"U","NORAD_CAT_ID":40483,"ELEMENT_SET_NO":999,"REV_AT_EPOCH":137,"BSTAR":0,"MEAN_MOTION_DOT":-2.107e-5,"MEAN_MOTION_DDOT":0},{"OBJECT_NAME":"MMS 3","OBJECT_ID":"2015-011C","EPOCH":"2026-02-02T00:00:02.000160","MEAN_MOTION":0.28335978,"ECCENTRICITY":0.84514677,"INCLINATION":70.3129,"RA_OF_ASC_NODE":350.6548,"ARG_OF_PERICENTER":164.5996,"MEAN_ANOMALY":189.5511,"EPHEMERIS_TYPE":0,"CLASSIFICATION_TYPE":"U","NORAD_CAT_ID":40484,"ELEMENT_SET_NO":999,"REV_AT_EPOCH":137,"BSTAR":0,"MEAN_MOTION_DOT":-2.107e-5,"MEAN_MOTION_DDOT":0},{"OBJECT_NAME":"MMS 4","OBJECT_ID":"2015-011D","EPOCH":"2026-02-02T00:00:02.000160","MEAN_MOTION":0.28335451,"ECCENTRICITY":0.8452646,"INCLINATION":70.3119,"RA_OF_ASC_NODE":350.6467,"ARG_OF_PERICENTER":164.5853,"MEAN_ANOMALY":189.5889,"EPHEMERIS_TYPE":0,"CLASSIFICATION_TYPE":"U","NORAD_CAT_ID":40485,"ELEMENT_SET_NO":999,"REV_AT_EPOCH":137,"BSTAR":0,"MEAN_MOTION_DOT":-2.108e-5,"MEAN_MOTION_DDOT":0},{"OBJECT_NAME":"TDRS 13","OBJECT_ID":"2017-047A","EPOCH":"2026-02-01T21:59:09.593664","MEAN_MOTION":1.00271439,"ECCENTRICITY":0.00088244,"INCLINATION":3.4255,"RA_OF_ASC_NODE":359.2873,"ARG_OF_PERICENTER":107.1546,"MEAN_ANOMALY":343.9716,"EPHEMERIS_TYPE":0,"CLASSIFICATION_TYPE":"U","NORAD_CAT_ID":42915,"ELEMENT_SET_NO":999,"REV_AT_EPOCH":3099,"BSTAR":0,"MEAN_MOTION_DOT":-1.05e-6,"MEAN_MOTION_DDOT":0},{"OBJECT_NAME":"NOAA 20 (JPSS-1)","OBJECT_ID":"2017-073A","EPOCH":"2026-02-01T21:08:23.364672","MEAN_MOTION":14.1952598,"ECCENTRICITY":6.147e-5,"INCLINATION":98.7654,"RA_OF_ASC_NODE":333.6329,"ARG_OF_PERICENTER":16.8843,"MEAN_ANOMALY":343.2353,"EPHEMERIS_TYPE":0,"CLASSIFICATION_TYPE":"U","NORAD_CAT_ID":43013,"ELEMENT_SET_NO":999,"REV_AT_EPOCH":42527,"BSTAR":5.8735574e-5,"MEAN_MOTION_DOT":8.0e-7,"MEAN_MOTION_DDOT":0}]
